start=new Date('2022-01-24T00:00:00.000Z').valueOf();
sats=[{"TLE_LINE1":"1 47818U 21018AH  22023.56471572  .00001309  00000-0  10675-3 0  9991","ARG_OF_PERICENTER":"83.4650","EPHEMERIS_TYPE":"0","SEMIMAJOR_AXIS":"6925.336","LAUNCH_DATE":"2021-03-11","INCLINATION":"53.0549","MEAN_MOTION_DOT":"0.00001309","TIME_SYSTEM":"UTC","REF_FRAME":"TEME","ECCENTRICITY":"0.00022790","PERIAPSIS":"545.622","PERIOD":"95.592","BSTAR":"0.00010675000000","MEAN_MOTION_DDOT":"0.0000000000000","REV_AT_EPOCH":"4951","OBJECT_TYPE":"PAYLOAD","RA_OF_ASC_NODE":"177.8808","DECAY_DATE":null,"GP_ID":"194464391","MEAN_ANOMALY":"276.6599","RCS_SIZE":"LARGE","ELEMENT_SET_NO":"999","APOAPSIS":"548.779","EPOCH":"2022-01-23T13:33:11.438208","MEAN_ELEMENT_THEORY":"SGP4","OBJECT_ID":"2021-018AH","FILE":"3280923","SITE":"AFETR","OBJECT_NAME":"STARLINK-2401","TLE_LINE2":"2 47818  53.0549 177.8808 0002279  83.4650 276.6599 15.06404229 49517","MEAN_MOTION":"15.06404229","COUNTRY_CODE":"US","NORAD_CAT_ID":"47818","CLASSIFICATION_TYPE":"U","CENTER_NAME":"EARTH"},{"ECCENTRICITY":"0.00020680","REF_FRAME":"TEME","TIME_SYSTEM":"UTC","BSTAR":"0.00002504400000","PERIOD":"95.592","PERIAPSIS":"545.782","SEMIMAJOR_AXIS":"6925.350","LAUNCH_DATE":"2021-03-11","ARG_OF_PERICENTER":"83.3797","TLE_LINE1":"1 47819U 21018AJ  22023.74026851  .00000091  00000-0  25044-4 0  9992","EPHEMERIS_TYPE":"0","MEAN_MOTION_DOT":"0.00000091","INCLINATION":"53.0532","TLE_LINE2":"2 47819  53.0532 172.0967 0002068  83.3797 276.7428 15.06399672 49281","SITE":"AFETR","OBJECT_NAME":"STARLINK-2402","CENTER_NAME":"EARTH","CLASSIFICATION_TYPE":"U","NORAD_CAT_ID":"47819","COUNTRY_CODE":"US","MEAN_MOTION":"15.06399672","RA_OF_ASC_NODE":"172.0967","OBJECT_TYPE":"PAYLOAD","GP_ID":"194470146","DECAY_DATE":null,"REV_AT_EPOCH":"4928","MEAN_MOTION_DDOT":"0.0000000000000","MEAN_ELEMENT_THEORY":"SGP4","RCS_SIZE":"LARGE","ELEMENT_SET_NO":"999","APOAPSIS":"548.647","EPOCH":"2022-01-23T17:45:59.199264","FILE":"3281049","OBJECT_ID":"2021-018AJ","MEAN_ANOMALY":"276.7428"},{"CLASSIFICATION_TYPE":"U","CENTER_NAME":"EARTH","MEAN_MOTION":"15.06404244","COUNTRY_CODE":"US","NORAD_CAT_ID":"47820","TLE_LINE2":"2 47820  53.0554 182.7830 0002244  81.5229 278.6014 15.06404244 49509","OBJECT_NAME":"STARLINK-2403","SITE":"AFETR","OBJECT_ID":"2021-018AK","FILE":"3280923","EPOCH":"2022-01-23T14:07:03.519552","RCS_SIZE":"LARGE","APOAPSIS":"548.755","ELEMENT_SET_NO":"999","MEAN_ELEMENT_THEORY":"SGP4","MEAN_ANOMALY":"278.6014","DECAY_DATE":null,"GP_ID":"194463397","OBJECT_TYPE":"PAYLOAD","RA_OF_ASC_NODE":"182.7830","MEAN_MOTION_DDOT":"0.0000000000000","REV_AT_EPOCH":"4950","PERIOD":"95.592","BSTAR":"0.00012023000000","PERIAPSIS":"545.647","REF_FRAME":"TEME","ECCENTRICITY":"0.00022440","TIME_SYSTEM":"UTC","MEAN_MOTION_DOT":"0.00001510","INCLINATION":"53.0554","LAUNCH_DATE":"2021-03-11","SEMIMAJOR_AXIS":"6925.336","EPHEMERIS_TYPE":"0","TLE_LINE1":"1 47820U 21018AK  22023.58823518  .00001510  00000-0  12023-3 0  9990","ARG_OF_PERICENTER":"81.5229"},{"BSTAR":"0.00002890900000","PERIOD":"95.592","PERIAPSIS":"545.524","ECCENTRICITY":"0.00024540","REF_FRAME":"TEME","TIME_SYSTEM":"UTC","MEAN_MOTION_DOT":"0.00000149","INCLINATION":"53.0528","LAUNCH_DATE":"2021-03-11","SEMIMAJOR_AXIS":"6925.358","EPHEMERIS_TYPE":"0","ARG_OF_PERICENTER":"85.9910","TLE_LINE1":"1 47821U 21018AL  22023.56608221  .00000149  00000-0  28909-4 0  9999","CLASSIFICATION_TYPE":"U","CENTER_NAME":"EARTH","NORAD_CAT_ID":"47821","MEAN_MOTION":"15.06396822","COUNTRY_CODE":"US","TLE_LINE2":"2 47821  53.0528 172.8773 0002454  85.9910 274.1360 15.06396822 49580","OBJECT_NAME":"STARLINK-2406","SITE":"AFETR","FILE":"3280923","OBJECT_ID":"2021-018AL","MEAN_ELEMENT_THEORY":"SGP4","RCS_SIZE":"LARGE","ELEMENT_SET_NO":"999","APOAPSIS":"548.923","EPOCH":"2022-01-23T13:35:09.502944","MEAN_ANOMALY":"274.1360","GP_ID":"194464648","DECAY_DATE":null,"RA_OF_ASC_NODE":"172.8773","OBJECT_TYPE":"PAYLOAD","REV_AT_EPOCH":"4958","MEAN_MOTION_DDOT":"0.0000000000000"},{"CLASSIFICATION_TYPE":"U","CENTER_NAME":"EARTH","COUNTRY_CODE":"US","MEAN_MOTION":"15.06405730","NORAD_CAT_ID":"47822","TLE_LINE2":"2 47822  53.0548 182.8193 0002429  77.9234 282.2027 15.06405730 49457","OBJECT_NAME":"STARLINK-2407","SITE":"AFETR","OBJECT_ID":"2021-018AM","FILE":"3280923","RCS_SIZE":"LARGE","ELEMENT_SET_NO":"999","APOAPSIS":"548.878","EPOCH":"2022-01-23T13:51:08.234496","MEAN_ELEMENT_THEORY":"SGP4","MEAN_ANOMALY":"282.2027","DECAY_DATE":null,"GP_ID":"194464891","OBJECT_TYPE":"PAYLOAD","RA_OF_ASC_NODE":"182.8193","MEAN_MOTION_DDOT":"0.0000000000000","REV_AT_EPOCH":"4945","PERIOD":"95.592","BSTAR":"0.00011389000000","PERIAPSIS":"545.514","REF_FRAME":"TEME","ECCENTRICITY":"0.00024290","TIME_SYSTEM":"UTC","MEAN_MOTION_DOT":"0.00001415","INCLINATION":"53.0548","LAUNCH_DATE":"2021-03-11","SEMIMAJOR_AXIS":"6925.331","EPHEMERIS_TYPE":"0","TLE_LINE1":"1 47822U 21018AM  22023.57717864  .00001415  00000-0  11389-3 0  9995","ARG_OF_PERICENTER":"77.9234"},{"TLE_LINE2":"2 47823  53.0546 171.8660 0002293  78.1474 281.9772 15.06388696 49286","OBJECT_NAME":"STARLINK-2408","SITE":"AFETR","CLASSIFICATION_TYPE":"U","CENTER_NAME":"EARTH","COUNTRY_CODE":"US","MEAN_MOTION":"15.06388696","NORAD_CAT_ID":"47823","DECAY_DATE":null,"GP_ID":"194469759","OBJECT_TYPE":"PAYLOAD","RA_OF_ASC_NODE":"171.8660","MEAN_MOTION_DDOT":"0.0000000000000","REV_AT_EPOCH":"4928","OBJECT_ID":"2021-018AN","FILE":"3281050","APOAPSIS":"548.836","RCS_SIZE":"LARGE","ELEMENT_SET_NO":"999","EPOCH":"2022-01-23T19:00:18.558144","MEAN_ELEMENT_THEORY":"SGP4","MEAN_ANOMALY":"281.9772","REF_FRAME":"TEME","ECCENTRICITY":"0.00022930","TIME_SYSTEM":"UTC","PERIOD":"95.593","BSTAR":"0.00001647700000","PERIAPSIS":"545.660","LAUNCH_DATE":"2021-03-11","SEMIMAJOR_AXIS":"6925.383","EPHEMERIS_TYPE":"0","TLE_LINE1":"1 47823U 21018AN  22023.79188146 -.00000036  00000-0  16477-4 0  9998","ARG_OF_PERICENTER":"78.1474","MEAN_MOTION_DOT":"-0.00000036","INCLINATION":"53.0546"},{"OBJECT_NAME":"STARLINK-2409","SITE":"AFETR","TLE_LINE2":"2 47824  53.0536 171.9130 0002002  77.4359 282.6854 15.06397017 49287","NORAD_CAT_ID":"47824","MEAN_MOTION":"15.06397017","COUNTRY_CODE":"US","CENTER_NAME":"EARTH","CLASSIFICATION_TYPE":"U","REV_AT_EPOCH":"4928","MEAN_MOTION_DDOT":"0.0000000000000","GP_ID":"194469756","DECAY_DATE":null,"RA_OF_ASC_NODE":"171.9130","OBJECT_TYPE":"PAYLOAD","MEAN_ANOMALY":"282.6854","FILE":"3281050","OBJECT_ID":"2021-018AP","MEAN_ELEMENT_THEORY":"SGP4","EPOCH":"2022-01-23T18:44:22.740864","RCS_SIZE":"LARGE","APOAPSIS":"548.609","ELEMENT_SET_NO":"999","TIME_SYSTEM":"UTC","ECCENTRICITY":"0.00020020","REF_FRAME":"TEME","PERIAPSIS":"545.836","BSTAR":"0.00001696200000","PERIOD":"95.592","EPHEMERIS_TYPE":"0","ARG_OF_PERICENTER":"77.4359","TLE_LINE1":"1 47824U 21018AP  22023.78081876 -.00000029  00000-0  16962-4 0  9991","LAUNCH_DATE":"2021-03-11","SEMIMAJOR_AXIS":"6925.358","INCLINATION":"53.0536","MEAN_MOTION_DOT":"-0.00000029"},{"TLE_LINE1":"1 47825U 21018AQ  22023.79924275 -.00000224  00000-0  38352-5 0  9997","ARG_OF_PERICENTER":"85.1056","EPHEMERIS_TYPE":"0","SEMIMAJOR_AXIS":"6925.356","LAUNCH_DATE":"2021-03-11","INCLINATION":"53.0557","MEAN_MOTION_DOT":"-0.00000224","TIME_SYSTEM":"UTC","REF_FRAME":"TEME","ECCENTRICITY":"0.00017070","PERIAPSIS":"546.039","PERIOD":"95.592","BSTAR":"0.00000383520000","MEAN_MOTION_DDOT":"0.0000000000000","REV_AT_EPOCH":"4928","OBJECT_TYPE":"PAYLOAD","RA_OF_ASC_NODE":"171.8215","DECAY_DATE":null,"GP_ID":"194470182","MEAN_ANOMALY":"275.0127","APOAPSIS":"548.404","RCS_SIZE":"LARGE","ELEMENT_SET_NO":"999","EPOCH":"2022-01-23T19:10:54.573600","MEAN_ELEMENT_THEORY":"SGP4","OBJECT_ID":"2021-018AQ","FILE":"3281051","SITE":"AFETR","OBJECT_NAME":"STARLINK-2410","TLE_LINE2":"2 47825  53.0557 171.8215 0001707  85.1056 275.0127 15.06397454 49289","COUNTRY_CODE":"US","MEAN_MOTION":"15.06397454","NORAD_CAT_ID":"47825","CLASSIFICATION_TYPE":"U","CENTER_NAME":"EARTH"},{"OBJECT_NAME":"STARLINK-2411","SITE":"AFETR","TLE_LINE2":"2 47826  53.0551 172.7435 0002178  82.4293 277.6944 15.06394083 49598","COUNTRY_CODE":"US","MEAN_MOTION":"15.06394083","NORAD_CAT_ID":"47826","CLASSIFICATION_TYPE":"U","CENTER_NAME":"EARTH","MEAN_MOTION_DDOT":"0.0000000000000","REV_AT_EPOCH":"4959","DECAY_DATE":null,"GP_ID":"194464392","OBJECT_TYPE":"PAYLOAD","RA_OF_ASC_NODE":"172.7435","MEAN_ANOMALY":"277.6944","OBJECT_ID":"2021-018AR","FILE":"3280923","RCS_SIZE":"LARGE","APOAPSIS":"548.740","ELEMENT_SET_NO":"999","EPOCH":"2022-01-23T14:18:59.410944","MEAN_ELEMENT_THEORY":"SGP4","TIME_SYSTEM":"UTC","REF_FRAME":"TEME","ECCENTRICITY":"0.00021780","PERIAPSIS":"545.723","PERIOD":"95.593","BSTAR":"0.00012482000000","EPHEMERIS_TYPE":"0","TLE_LINE1":"1 47826U 21018AR  22023.59652096  .00001578  00000-0  12482-3 0  9991","ARG_OF_PERICENTER":"82.4293","LAUNCH_DATE":"2021-03-11","SEMIMAJOR_AXIS":"6925.367","INCLINATION":"53.0551","MEAN_MOTION_DOT":"0.00001578"},{"TIME_SYSTEM":"UTC","ECCENTRICITY":"0.00019020","REF_FRAME":"TEME","PERIAPSIS":"545.887","BSTAR":"0.00018230000000","PERIOD":"95.592","EPHEMERIS_TYPE":"0","ARG_OF_PERICENTER":"84.6318","TLE_LINE1":"1 47827U 21018AS  22023.55594660  .00002435  00000-0  18230-3 0  9990","LAUNCH_DATE":"2021-03-11","SEMIMAJOR_AXIS":"6925.339","INCLINATION":"53.0546","MEAN_MOTION_DOT":"0.00002435","OBJECT_NAME":"STARLINK-2413","SITE":"AFETR","TLE_LINE2":"2 47827  53.0546 162.9263 0001902  84.6318 275.4888 15.06402965 49782","NORAD_CAT_ID":"47827","MEAN_MOTION":"15.06402965","COUNTRY_CODE":"US","CENTER_NAME":"EARTH","CLASSIFICATION_TYPE":"U","REV_AT_EPOCH":"4978","MEAN_MOTION_DDOT":"0.0000000000000","GP_ID":"194463648","DECAY_DATE":null,"RA_OF_ASC_NODE":"162.9263","OBJECT_TYPE":"PAYLOAD","MEAN_ANOMALY":"275.4888","FILE":"3280923","OBJECT_ID":"2021-018AS","MEAN_ELEMENT_THEORY":"SGP4","EPOCH":"2022-01-23T13:20:33.786240","RCS_SIZE":"LARGE","APOAPSIS":"548.522","ELEMENT_SET_NO":"999"}];
